NORAD_CAT_ID,OBJECT_NAME,OBJECT_TYPE,EPOCH,MEAN_MOTION,ECCENTRICITY,INCLINATION,RA_OF_ASC_NODE,ARG_OF_PERICENTER,MEAN_ANOMALY,BSTAR,MEAN_MOTION_DOT,MEAN_MOTION_DDOT,TLE_LINE0,TLE_LINE1,TLE_LINE2,SEMIMAJOR_AXIS,PERIOD,APOGEE,PERIGEE,DECAYED
54800.0,STARLINK-5428,PAYLOAD,2024-02-10 17:07:18,15.08844488,0.0001278,53.2169,196.5761,94.8558,265.258,-7.2555e-05,-1.443e-05,0.0,0 STARLINK-5428,1 54800U 22175AU  24041.71341328 -.00001443  00000-0 -72555-4 0  9996,2 54800  53.2169 196.5761 0001278  94.8558 265.2580 15.08844488 63475,6917.867,95.437,540.616,538.848,0.0
54800.0,STARLINK-5428,PAYLOAD,2024-02-11 13:47:18,15.08850163,0.0001255,53.2172,192.7113,70.546,289.5668,0.00024435,3.604e-05,0.0,0 STARLINK-5428,1 54800U 22175AU  24042.57452157  .00003604  00000-0  24435-3 0  9996,2 54800  53.2172 192.7113 0001255  70.5460 289.5668 15.08850163 65763,6917.849,95.437,540.583,538.846,0.0
54800.0,STARLINK-5428,PAYLOAD,2024-02-11 15:22:41,15.08848532,0.0001526,53.2173,192.4152,63.0668,297.048,0.00024797,3.662e-05,0.0,0 STARLINK-5428,1 54800U 22175AU  24042.64076307  .00003662  00000-0  24797-3 0  9998,2 54800  53.2173 192.4152 0001526  63.0668 297.0480 15.08848532 63617,6917.854,95.437,540.775,538.664,0.0
54800.0,STARLINK-5428,PAYLOAD,2024-02-12 13:38:07,15.08838253,0.0001468,53.2159,188.2436,52.5026,307.6099,5.4822e-05,5.85e-06,0.0,0 STARLINK-5428,1 54800U 22175AU  24043.56813799  .00000585  00000-0  54822-4 0  9998,2 54800  53.2159 188.2436 0001468  52.5026 307.6099 15.08838253 65913,6917.886,95.438,540.766,538.735,0.0
54800.0,STARLINK-5428,PAYLOAD,2024-02-12 19:59:39,15.08840336,0.0001498,53.2166,187.0601,87.6323,272.484,3.0447e-05,1.97e-06,0.0,0 STARLINK-5428,1 54800U 22175AU  24043.83309274  .00000197  00000-0  30447-4 0  9992,2 54800  53.2166 187.0601 0001498  87.6323 272.4840 15.08840336 63796,6917.879,95.438,540.781,538.708,0.0
54800.0,STARLINK-5428,PAYLOAD,2024-02-13 13:28:54,15.08832196,0.0001715,53.2178,183.7878,87.2471,272.8717,-0.00020329,-3.521e-05,0.0,0 STARLINK-5428,1 54800U 22175AU  24044.56174029 -.00003521  00000-0 -20329-3 0  9994,2 54800  53.2178 183.7878 0001715  87.2471 272.8717 15.08832196 66065,6917.904,95.438,540.956,538.583,0.0
54800.0,STARLINK-5428,PAYLOAD,2024-02-13 18:15:03,15.08840738,0.0001717,53.2172,182.8948,85.5233,274.5955,-5.3519e-05,-1.14e-05,0.0,0 STARLINK-5428,1 54800U 22175AU  24044.76045442 -.00001140  00000-0 -53519-4 0  9995,2 54800  53.2172 182.8948 0001717  85.5233 274.5955 15.08840738 66093,6917.878,95.438,540.931,538.555,0.0
54800.0,STARLINK-5428,PAYLOAD,2024-02-14 02:11:59,15.08834175,0.0001715,53.2171,181.4108,84.7142,275.4046,0.00013562,1.871e-05,0.0,0 STARLINK-5428,1 54800U 22175AU  24045.09166365  .00001871  00000-0  13562-3 0  9992,2 54800  53.2171 181.4108 0001715  84.7142 275.4046 15.08834175 63987,6917.898,95.438,540.95,538.577,0.0
54800.0,STARLINK-5428,PAYLOAD,2024-02-14 14:55:04,15.08842952,0.0001602,53.2158,179.0343,87.6738,272.4437,0.00020798,3.024e-05,0.0,0 STARLINK-5428,1 54800U 22175AU  24045.62158088  .00003024  00000-0  20798-3 0  9995,2 54800  53.2158 179.0343 0001602  87.6738 272.4437 15.08842952 66227,6917.871,95.437,540.845,538.628,0.0
54800.0,STARLINK-5428,PAYLOAD,2024-02-14 16:30:27,15.0884841,0.0001716,53.2157,178.7368,87.4588,272.66,0.00028678,4.28e-05,0.0,0 STARLINK-5428,1 54800U 22175AU  24045.68781703  .00004280  00000-0  28678-3 0  9997,2 54800  53.2157 178.7368 0001716  87.4588 272.6600 15.08848410 64076,6917.855,95.437,540.907,538.533,0.0
54800.0,STARLINK-5428,PAYLOAD,2024-02-15 08:24:19,15.08833138,0.0001705,53.2179,175.7598,97.8586,262.26,0.00013746,1.9e-05,0.0,0 STARLINK-5428,1 54800U 22175AU  24046.35022860  .00001900  00000-0  13746-3 0  9990,2 54800  53.2179 175.7598 0001705  97.8586 262.2600 15.08833138 64170,6917.901,95.438,540.946,538.587,0.0
54800.0,STARLINK-5428,PAYLOAD,2024-02-15 14:45:52,15.08836483,0.0001599,53.2164,174.5735,95.2253,264.8922,5.8757e-05,6.47e-06,0.0,0 STARLINK-5428,1 54800U 22175AU  24046.61518690  .00000647  00000-0  58757-4 0  9999,2 54800  53.2164 174.5735 0001599  95.2253 264.8922 15.08836483 66373,6917.891,95.438,540.862,538.65,0.0
54800.0,STARLINK-5428,PAYLOAD,2024-02-16 11:25:52,15.08844805,0.0001393,53.2147,170.708,81.0228,279.0922,0.00017308,2.468e-05,0.0,0 STARLINK-5428,1 54800U 22175AU  24047.47630539  .00002468  00000-0  17308-3 0  9990,2 54800  53.2147 170.7080 0001393  81.0228 279.0922 15.08844805 64342,6917.866,95.437,540.694,538.767,0.0
54800.0,STARLINK-5428,PAYLOAD,2024-02-16 14:36:38,15.08850169,0.0001588,53.2163,170.114,92.5166,267.6008,0.00031911,4.796e-05,0.0,0 STARLINK-5428,1 54800U 22175AU  24047.60878321  .00004796  00000-0  31911-3 0  9990,2 54800  53.2163 170.1140 0001588  92.5166 267.6008 15.08850169 66525,6917.849,95.437,540.813,538.616,0.0
54800.0,STARLINK-5428,PAYLOAD,2024-02-17 11:16:40,15.08837256,0.0001387,53.2167,166.2484,97.1223,262.9927,0.00012656,1.727e-05,0.0,0 STARLINK-5428,1 54800U 22175AU  24048.46991121  .00001727  00000-0  12656-3 0  9995,2 54800  53.2167 166.2484 0001387  97.1223 262.9927 15.08837256 64492,6917.889,95.438,540.713,538.794,0.0
54800.0,STARLINK-5428,PAYLOAD,2024-02-17 14:27:26,15.08838032,0.00013,53.2161,165.6526,98.4436,261.6703,0.00015182,2.129e-05,0.0,0 STARLINK-5428,1 54800U 22175AU  24048.60239141  .00002129  00000-0  15182-3 0  9992,2 54800  53.2161 165.6526 0001300  98.4436 261.6703 15.08838032 66674,6917.886,95.438,540.651,538.852,0.0
54800.0,STARLINK-5428,PAYLOAD,2024-02-17 17:38:12,15.08842504,0.0001384,53.2156,165.0572,98.3947,261.7202,0.00023504,3.455e-05,0.0,0 STARLINK-5428,1 54800U 22175AU  24048.73487042  .00003455  00000-0  23504-3 0  9991,2 54800  53.2156 165.0572 0001384  98.3947 261.7202 15.08842504 66697,6917.873,95.437,540.695,538.78,0.0
54800.0,STARLINK-5428,PAYLOAD,2024-02-18 14:18:13,15.08855447,0.0001401,53.2161,161.1928,89.6745,270.4408,0.00051469,7.916e-05,0.0,0 STARLINK-5428,1 54800U 22175AU  24049.59598388  .00007916  00000-0  51469-3 0  9999,2 54800  53.2161 161.1928 0001401  89.6745 270.4408 15.08855447 66824,6917.833,95.437,540.667,538.729,0.0
54800.0,STARLINK-5428,PAYLOAD,2024-02-18 23:50:31,15.08845639,0.000145,53.2155,159.4068,89.3472,270.7686,0.00029838,4.465e-05,0.0,0 STARLINK-5428,1 54800U 22175AU  24049.99342574  .00004465  00000-0  29838-3 0  9998,2 54800  53.2155 159.4068 0001450  89.3472 270.7686 15.08845639 64720,6917.863,95.437,540.731,538.725,0.0
54800.0,STARLINK-5428,PAYLOAD,2024-02-19 10:58:14,15.08837401,0.0002115,53.2161,157.3261,91.2646,268.8588,-1.2927e-05,-4.94e-06,0.0,0 STARLINK-5428,1 54800U 22175AU  24050.45711209 -.00000494  00000-0 -12927-4 0  9998,2 54800  53.2161 157.3261 0002115  91.2646 268.8588 15.08837401 64797,6917.888,95.438,541.216,538.29,0.0
54800.0,STARLINK-5428,PAYLOAD,2024-02-19 14:09:00,15.08838692,0.0001421,53.2162,156.7347,108.4854,251.6292,4.5272e-05,4.33e-06,0.0,0 STARLINK-5428,1 54800U 22175AU  24050.58959021  .00000433  00000-0  45272-4 0  9998,2 54800  53.2162 156.7347 0001421 108.4854 251.6292 15.08838692 66974,6917.884,95.438,540.732,538.766,0.0
54800.0,STARLINK-5428,PAYLOAD,2024-02-20 12:24:24,15.08841052,0.0001426,53.2159,152.5713,106.6466,253.4683,0.00013539,1.868e-05,0.0,0 STARLINK-5428,1 54800U 22175AU  24051.51695103  .00001868  00000-0  13539-3 0  9993,2 54800  53.2159 152.5713 0001426 106.6466 253.4683 15.08841052 64959,6917.877,95.437,540.729,538.756,0.0
54800.0,STARLINK-5428,PAYLOAD,2024-02-20 13:59:47,15.08844676,0.0001241,53.2155,152.2726,97.5669,262.5464,0.00025234,3.731e-05,0.0,0 STARLINK-5428,1 54800U 22175AU  24051.58319031  .00003731  00000-0  25234-3 0  9999,2 54800  53.2155 152.2726 0001241  97.5669 262.5464 15.08844676 67129,6917.866,95.437,540.59,538.873,0.0
54800.0,STARLINK-5428,PAYLOAD,2024-02-21 12:15:11,15.08845614,0.0001433,53.2174,148.1104,98.5877,261.5277,0.00023757,3.496e-05,0.0,0 STARLINK-5428,1 54800U 22175AU  24052.51055098  .00003496  00000-0  23757-3 0  9999,2 54800  53.2174 148.1104 0001433  98.5877 261.5277 15.08845614 67268,6917.863,95.437,540.72,538.737,0.0
54800.0,STARLINK-5428,PAYLOAD,2024-02-22 12:05:58,15.08839903,0.000153,53.2182,143.6498,97.333,262.7836,5.1485e-05,5.31e-06,0.0,0 STARLINK-5428,1 54800U 22175AU  24053.50415363  .00000531  00000-0  51485-4 0  9991,2 54800  53.2182 143.6498 0001530  97.3330 262.7836 15.08839903 65257,6917.881,95.438,540.804,538.687,0.0
54800.0,STARLINK-5428,PAYLOAD,2024-02-22 13:41:22,15.08838522,0.0001614,53.2175,143.3552,87.8257,272.292,0.00025024,3.697e-05,0.0,0 STARLINK-5428,1 54800U 22175AU  24053.57039669  .00003697  00000-0  25024-3 0  9994,2 54800  53.2175 143.3552 0001614  87.8257 272.2920 15.08838522 67429,6917.885,95.438,540.866,538.633,0.0
54800.0,STARLINK-5428,PAYLOAD,2024-02-23 11:56:45,15.08845743,0.0001599,53.2165,139.1903,91.0943,269.0233,7.4429e-05,8.97e-06,0.0,0 STARLINK-5428,1 54800U 22175AU  24054.49775197  .00000897  00000-0  74429-4 0  9992,2 54800  53.2165 139.1903 0001599  91.0943 269.0233 15.08845743 67561,6917.863,95.437,540.834,538.622,0.0
54800.0,STARLINK-5428,PAYLOAD,2024-02-23 23:04:27,15.08844411,0.0001547,53.2156,137.1076,90.0006,270.1163,0.00016967,2.414e-05,0.0,0 STARLINK-5428,1 54800U 22175AU  24054.96143205  .00002414  00000-0  16967-3 0  9992,2 54800  53.2156 137.1076 0001547  90.0006 270.1163 15.08844411 65476,6917.867,95.437,540.802,538.662,0.0
54800.0,STARLINK-5428,PAYLOAD,2024-02-24 11:47:32,15.08843702,0.0001764,53.2178,134.7269,98.7609,261.3583,6.6331e-05,7.68e-06,0.0,0 STARLINK-5428,1 54800U 22175AU  24055.49135186  .00000768  00000-0  66331-4 0  9991,2 54800  53.2178 134.7269 0001764  98.7609 261.3583 15.08843702 67711,6917.869,95.437,540.954,538.514,0.0
54800.0,STARLINK-5428,PAYLOAD,2024-02-25 05:16:47,15.08844035,0.0001605,53.2176,131.4563,95.5085,264.6091,1.1257e-05,-1.09e-06,0.0,0 STARLINK-5428,1 54800U 22175AU  24056.21999446 -.00000109  00000-0  11257-4 0  9996,2 54800  53.2176 131.4563 0001605  95.5085 264.6091 15.08844035 65669,6917.868,95.437,540.843,538.623,0.0
